NORAD_CAT_ID,OBJECT_NAME,OBJECT_TYPE,EPOCH,MEAN_MOTION,ECCENTRICITY,INCLINATION,RA_OF_ASC_NODE,ARG_OF_PERICENTER,MEAN_ANOMALY,BSTAR,MEAN_MOTION_DOT,MEAN_MOTION_DDOT,TLE_LINE0,TLE_LINE1,TLE_LINE2,SEMIMAJOR_AXIS,PERIOD,APOGEE,PERIGEE,DECAYED
55742.0,STARLINK-5594,PAYLOAD,2023-04-29 22:00:00,15.07158861,0.0003085,70.0022,358.9614,274.3567,199.6898,-0.06452,-0.00900597,0.0,0 STARLINK-5594,1 55742U 23028B   23119.91667824 -.00900597  00000-0 -64520-1 0  9997,2 55742  70.0022 358.9614 0003085 274.3567 199.6898 15.07158861  9531,6923.024,95.544,547.024,542.753,0.0
55742.0,STARLINK-5594,PAYLOAD,2023-04-30 14:00:01,15.05870756,0.0003034,70.0021,357.2592,267.0198,221.6207,-0.067224,-0.00905712,0.0,0 STARLINK-5594,1 55742U 23028B   23120.58334491 -.00905712  00000-0 -67224-1 0  9991,2 55742  70.0021 357.2592 0003034 267.0198 221.6207 15.05870756  9633,6926.971,95.626,550.938,546.734,0.0
55742.0,STARLINK-5594,PAYLOAD,2023-05-01 06:00:00,15.04591944,0.0002944,70.0018,355.5603,272.4519,227.6649,-0.074662,-0.00978087,0.0,0 STARLINK-5594,1 55742U 23028B   23121.25001157 -.00978087  00000-0 -74662-1 0  9995,2 55742  70.0018 355.5603 0002944 272.4519 227.6649 15.04591944  9734,6930.896,95.707,554.801,550.72,0.0
55742.0,STARLINK-5594,PAYLOAD,2023-05-01 14:00:01,15.03918202,0.0002985,70.002,354.7122,265.9227,238.7613,-0.071446,-0.00912774,0.0,0 STARLINK-5594,1 55742U 23028B   23121.58334491 -.00912774  00000-0 -71446-1 0  9999,2 55742  70.0020 354.7122 0002985 265.9227 238.7613 15.03918202  1300,6932.965,95.75,556.9,552.761,0.0
55742.0,STARLINK-5594,PAYLOAD,2023-05-01 22:00:00,15.03241623,0.0002973,70.002,353.8649,271.3184,237.1656,-0.071067,-0.00893178,0.0,0 STARLINK-5594,1 55742U 23028B   23121.91667824 -.00893178  00000-0 -71067-1 0  9990,2 55742  70.0020 353.8649 0002973 271.3184 237.1656 15.03241623  9836,6935.045,95.793,558.972,554.849,0.0
55742.0,STARLINK-5594,PAYLOAD,2023-05-02 14:00:01,15.01966856,0.0002979,70.0018,352.1728,264.6804,249.0701,-0.076105,-0.00922288,0.0,0 STARLINK-5594,1 55742U 23028B   23122.58335648 -.00922288  00000-0 -76105-1 0  9993,2 55742  70.0018 352.1728 0002979 264.6804 249.0701 15.01966856  9937,6938.969,95.874,562.901,558.767,0.0
55742.0,STARLINK-5594,PAYLOAD,2023-05-02 22:00:00,15.01283603,0.0002944,70.0018,351.3281,270.4488,244.6927,-0.074568,-0.00889965,0.0,0 STARLINK-5594,1 55742U 23028B   23122.91667824 -.00889965  00000-0 -74568-1 0  9999,2 55742  70.0018 351.3281 0002944 270.4488 244.6927 15.01283603  1303,6941.074,95.918,564.983,560.896,0.0
55742.0,STARLINK-5594,PAYLOAD,2023-05-03 14:00:01,14.99958681,0.0002952,70.0015,349.6411,263.133,252.5285,-0.067997,-0.00790538,0.0,0 STARLINK-5594,1 55742U 23028B   23123.58334491 -.00790538  00000-0 -67997-1 0  9999,2 55742  70.0015 349.6411 0002952 263.1330 252.5285 14.99958681 10080,6945.161,96.003,569.076,564.976,0.0
55742.0,STARLINK-5594,PAYLOAD,2023-05-03 22:00:00,14.99283915,0.0002884,70.0014,348.7988,269.1484,245.6172,0.00031108,3.713e-05,0.0,0 STARLINK-5594,1 55742U 23028B   23123.91667824  .00003713  00000-0  31108-3 0  9992,2 55742  70.0014 348.7988 0002884 269.1484 245.6172 14.99283915 10133,6947.245,96.046,571.113,567.106,0.0
55742.0,STARLINK-5594,PAYLOAD,2023-05-04 14:00:01,14.99283595,0.0002868,70.0013,347.1153,261.6718,250.4254,0.0036107,0.00044347,0.0,0 STARLINK-5594,1 55742U 23028B   23124.58335648  .00044347  00000-0  36107-2 0  9993,2 55742  70.0013 347.1153 0002868 261.6718 250.4254 14.99283595  1306,6947.246,96.046,571.103,567.118,0.0
55742.0,STARLINK-5594,PAYLOAD,2023-05-04 22:00:01,14.99303847,0.0002876,70.0011,346.2735,268.7268,242.0194,-0.00086484,-0.00010661,0.0,0 STARLINK-5594,1 55742U 23028B   23124.91668981 -.00010661  00000-0 -86484-3 0  9997,2 55742  70.0011 346.2735 0002876 268.7268 242.0194 14.99303847 10287,6947.183,96.045,571.046,567.05,0.0
55742.0,STARLINK-5594,PAYLOAD,2023-05-05 22:00:00,14.99309536,0.0002893,70.0008,343.7481,270.5616,236.0696,-0.0012785,-0.00015706,0.0,0 STARLINK-5594,1 55742U 23028B   23125.91667824 -.00015706  00000-0 -12785-2 0  9990,2 55742  70.0008 343.7481 0002893 270.5616 236.0696 14.99309536 10438,6947.165,96.044,571.04,567.021,0.0
55742.0,STARLINK-5594,PAYLOAD,2023-05-06 16:00:00,14.99322937,0.0002914,70.0009,341.854,266.4388,327.1374,-0.0018515,-0.00022689,0.0,0 STARLINK-5594,1 55742U 23028B   23126.66667824 -.00022689  00000-0 -18515-2 0  9998,2 55742  70.0009 341.8540 0002914 266.4388 327.1374 14.99322937  1309,6947.124,96.043,571.013,566.965,0.0
55742.0,STARLINK-5594,PAYLOAD,2023-05-06 22:00:00,14.99313617,0.0002935,70.0006,341.2227,271.8522,230.7384,-0.0021512,-0.00026326,0.0,0 STARLINK-5594,1 55742U 23028B   23126.91667824 -.00026326  00000-0 -21512-2 0  9999,2 55742  70.0006 341.2227 0002935 271.8522 230.7384 14.99313617 10580,6947.153,96.044,571.057,566.979,0.0
55742.0,STARLINK-5594,PAYLOAD,2023-05-07 00:34:07,14.99305628,0.0002728,69.9993,340.9524,267.4315,92.6532,7.9477e-05,8.79e-06,0.0,0 STARLINK-5594,1 55742U 23028B   23127.02369895  .00000879  00000-0  79477-4 0  9997,2 55742  69.9993 340.9524 0002728 267.4315  92.6532 14.99305628 10605,6947.177,96.044,570.938,567.147,0.0
55742.0,STARLINK-5594,PAYLOAD,2023-05-07 18:10:56,14.99295661,0.0002609,69.9995,339.099,269.4887,90.5974,-7.0071e-05,-9.51e-06,0.0,0 STARLINK-5594,1 55742U 23028B   23127.75759458 -.00000951  00000-0 -70071-4 0  9999,2 55742  69.9995 339.0990 0002609 269.4887  90.5974 14.99295661 10711,6947.208,96.045,570.886,567.261,0.0
55742.0,STARLINK-5594,PAYLOAD,2023-05-07 21:23:04,14.99294296,0.0002626,69.9996,338.762,269.7503,90.3356,-8.3051e-05,-1.11e-05,0.0,0 STARLINK-5594,1 55742U 23028B   23127.89102980 -.00001110  00000-0 -83051-4 0  9996,2 55742  69.9996 338.7620 0002626 269.7503  90.3356 14.99294296 10732,6947.212,96.045,570.902,567.253,0.0
55742.0,STARLINK-5594,PAYLOAD,2023-05-08 06:59:30,14.99299197,0.000265,69.9996,337.7511,270.1207,89.9649,-2.5482e-05,-4.06e-06,0.0,0 STARLINK-5594,1 55742U 23028B   23128.29132685 -.00000406  00000-0 -25482-4 0  9997,2 55742  69.9996 337.7511 0002650 270.1207  89.9649 14.99299197 10794,6947.197,96.045,570.903,567.221,0.0
55742.0,STARLINK-5594,PAYLOAD,2023-05-09 23:01:18,14.99297962,0.0002918,69.999,333.5391,269.2308,90.8517,6.5698e-05,7.1e-06,0.0,0 STARLINK-5594,1 55742U 23028B   23129.95924304  .00000710  00000-0  65698-4 0  9997,2 55742  69.9990 333.5391 0002918 269.2308  90.8517 14.99297962 11048,6947.201,96.045,571.093,567.039,0.0
55742.0,STARLINK-5594,PAYLOAD,2023-05-10 19:50:14,14.99305462,0.0002841,69.9992,331.3491,268.6934,91.39,-2.1291e-05,-3.54e-06,0.0,0 STARLINK-5594,1 55742U 23028B   23130.82655916 -.00000354  00000-0 -21291-4 0  9992,2 55742  69.9992 331.3491 0002841 268.6934  91.3900 14.99305462 11171,6947.178,96.044,571.017,567.069,0.0
55742.0,STARLINK-5594,PAYLOAD,2023-05-10 23:02:23,14.99304769,0.0002866,69.9992,331.0121,268.83,91.2531,-2.7685e-05,-4.33e-06,0.0,0 STARLINK-5594,1 55742U 23028B   23130.95999302 -.00000433  00000-0 -27685-4 0  9997,2 55742  69.9992 331.0121 0002866 268.8300  91.2531 14.99304769 11194,6947.18,96.045,571.036,567.054,0.0
55742.0,STARLINK-5594,PAYLOAD,2023-05-11 16:39:11,14.99298127,0.0002884,69.9992,329.1581,268.9809,91.102,-3.4802e-06,-1.36e-06,0.0,0 STARLINK-5594,1 55742U 23028B   23131.69388095 -.00000136  00000-0 -34802-5 0  9990,2 55742  69.9992 329.1581 0002884 268.9809  91.1020 14.99298127 11302,6947.201,96.045,571.069,567.062,0.0
55742.0,STARLINK-5594,PAYLOAD,2023-05-11 21:27:24,14.99298337,0.0002875,69.9993,328.6528,269.0203,91.0627,-1.0755e-07,-9.5e-07,0.0,0 STARLINK-5594,1 55742U 23028B   23131.89403140 -.00000095  00000-0 -10755-6 0  9997,2 55742  69.9993 328.6528 0002875 269.0203  91.0627 14.99298337 11336,6947.2,96.045,571.062,567.068,0.0
55742.0,STARLINK-5594,PAYLOAD,2023-05-11 23:03:28,14.99299034,0.0002874,69.9993,328.4844,269.0953,90.9877,7.5556e-06,-1e-08,0.0,0 STARLINK-5594,1 55742U 23028B   23131.96074766 -.00000001  00000-0  75556-5 0  9998,2 55742  69.9993 328.4844 0002874 269.0953  90.9877 14.99299034 11347,6947.198,96.045,571.059,567.066,0.0
55742.0,STARLINK-5594,PAYLOAD,2023-05-12 16:40:16,14.9930143,0.0002954,69.9993,326.6321,269.6164,90.4657,5.8388e-06,-2.2e-07,0.0,0 STARLINK-5594,1 55742U 23028B   23132.69463106 -.00000022  00000-0  58388-5 0  9996,2 55742  69.9993 326.6321 0002954 269.6164  90.4657 14.99301430 11453,6947.19,96.045,571.108,567.003,0.0
55742.0,STARLINK-5594,PAYLOAD,2023-05-12 23:04:33,14.99302419,0.0002954,69.9993,325.9575,269.4677,90.6145,1.9348e-05,1.43e-06,0.0,0 STARLINK-5594,1 55742U 23028B   23132.96149701  .00000143  00000-0  19348-4 0  9993,2 55742  69.9993 325.9575 0002954 269.4677  90.6145 14.99302419 11499,6947.187,96.045,571.105,567.0,0.0
55742.0,STARLINK-5594,PAYLOAD,2023-05-13 13:29:13,14.99291519,0.0002753,69.9999,324.4437,257.0104,103.0748,-4.6698e-05,-6.65e-06,0.0,0 STARLINK-5594,1 55742U 23028B   23133.56195787 -.00000665  00000-0 -46698-4 0  9994,2 55742  69.9999 324.4437 0002753 257.0104 103.0748 14.99291519 11587,6947.221,96.045,570.999,567.173,0.0
55742.0,STARLINK-5594,PAYLOAD,2023-05-13 19:53:55,14.98997068,0.0002771,70.0,323.7711,279.9718,80.1128,-0.0031441,-0.00038056,0.0,0 STARLINK-5594,1 55742U 23028B   23133.82911122 -.00038056  00000-0 -31441-2 0  9995,2 55742  70.0000 323.7711 0002771 279.9718  80.1128 14.98997068 11627,6948.131,96.064,571.921,568.07,0.0
55742.0,STARLINK-5594,PAYLOAD,2023-05-13 21:30:04,14.98945148,0.0002787,69.9998,323.603,273.5084,86.5757,-0.0036683,-0.00044286,0.0,0 STARLINK-5594,1 55742U 23028B   23133.89588619 -.00044286  00000-0 -36683-2 0  9998,2 55742  69.9998 323.6030 0002787 273.5084  86.5757 14.98945148 11637,6948.291,96.068,572.093,568.22,0.0
55742.0,STARLINK-5594,PAYLOAD,2023-05-13 23:06:20,14.98801141,0.0002995,70.0,323.4346,260.774,99.308,-0.0051912,-0.00062242,0.0,0 STARLINK-5594,1 55742U 23028B   23133.96274122 -.00062242  00000-0 -51912-2 0  9991,2 55742  70.0000 323.4346 0002995 260.7740  99.3080 14.98801141 11646,6948.736,96.077,572.682,568.52,0.0
